{
    "links": {
        "self": "http://www.neowsapp.com/rest/v1/neo/3329277?api_key=iIulBulltgU6a56xZRHN4H3l9WmuAYTsLGpBGhQ2"
    },
    "id": "3329277",
    "neo_reference_id": "3329277",
    "name": "(2006 GA)",
    "designation": "2006 GA",
    "nasa_jpl_url": "http://ssd.jpl.nasa.gov/sbdb.cgi?sstr=3329277",
    "absolute_magnitude_h": 21.5,
    "estimated_diameter": {
        "kilometers": {
            "estimated_diameter_min": 0.1332155667,
            "estimated_diameter_max": 0.2978790628
        },
        "meters": {
            "estimated_diameter_min": 133.2155666981,
            "estimated_diameter_max": 297.8790627982
        },
        "miles": {
            "estimated_diameter_min": 0.0827762899,
            "estimated_diameter_max": 0.1850934111
        },
        "feet": {
            "estimated_diameter_min": 437.0589598459,
            "estimated_diameter_max": 977.2935443908
        }
    },
    "is_potentially_hazardous_asteroid": false,
    "close_approach_data": [
        {
            "close_approach_date": "2006-03-24",
            "close_approach_date_full": "2006-Mar-24 07:24",
            "epoch_date_close_approach": 1143185040000,
            "relative_velocity": {
                "kilometers_per_second": "16.8130881001",
                "kilometers_per_hour": "60527.1171603312",
                "miles_per_hour": "37609.1967710958"
            },
            "miss_distance": {
                "astronomical": "0.1290041797",
                "lunar": "50.1826259033",
                "kilometers": "19298750.504217239",
                "miles": "11991687.5013823382"
            },
            "orbiting_body": "Earth"
        }
    ],
    "orbital_data": {
        "orbit_id": "10",
        "orbit_determination_date": "2017-04-06 09:08:51",
        "first_observation_date": "2006-04-02",
        "last_observation_date": "2006-04-24",
        "data_arc_in_days": 22,
        "observations_used": 28,
        "orbit_uncertainty": "7",
        "minimum_orbit_intersection": ".0823321",
        "jupiter_tisserand_invariant": "3.149",
        "epoch_osculation": "2459000.5",
        "eccentricity": ".6173168313724751",
        "semi_major_axis": "2.452389619027065",
        "inclination": "18.03348904511653",
        "ascending_node_longitude": "188.1569494378836",
        "orbital_period": "1402.75760050989",
        "perihelion_distance": ".938488230118526",
        "perihelion_argument": "304.9133549676056",
        "aphelion_distance": "3.966291007935605",
        "perihelion_time": "2459399.295045005750",
        "mean_anomaly": "257.6542945481922",
        "mean_motion": ".2566373547854193",
        "equinox": "J2000",
        "orbit_class": {
            "orbit_class_type": "APO",
            "orbit_class_description": "Near-Earth asteroid orbits which cross the Earth’s orbit similar to that of 1862 Apollo",
            "orbit_class_range": "a (semi-major axis) > 1.0 AU; q (perihelion) < 1.017 AU"
        }
    },
    "is_sentry_object": false
}